STARLINK-36318          
1 68048U 26041J   26074.25001157 -.01922411  00000+0 -11994-1 0  9995
2 68048  53.1594  34.2093 0000876  98.5220  79.5340 15.79353662  3270
STARLINK-36885          
1 68049U 26041K   26074.25001157 -.01902306  00000+0 -12632-1 0  9997
2 68049  53.1596  34.1971 0001096  98.0144  85.9612 15.77950591  3277
STARLINK-36945          
1 68050U 26041L   26074.25001157  .00154977  00000+0  77716-3 0  9995
2 68050  53.1594  34.1983 0001531  55.8288 127.5049 15.80804229  3271
STARLINK-35911          
1 68051U 26041M   26074.25001157  .00119075  00000+0  60013-3 0  9998
2 68051  53.1595  34.1810 0001934  51.2011 140.6748 15.80814537  3234
STARLINK-35808          
1 68052U 26041N   26074.25001157  .00180913  00000+0  90466-3 0  9993
2 68052  53.1594  34.1714 0001935  43.3471 152.8190 15.80785583  3234
STARLINK-36919          
1 68053U 26041P   26074.25001157  .00163778  00000+0  82024-3 0  9995
2 68053  53.1595  34.1625 0001744  55.7524 144.6663 15.80804471  3277
STARLINK-36924          
1 68054U 26041Q   26074.25001157 -.01903000  00000+0 -12339-1 0  9999
2 68054  53.1594  34.1507 0001236  85.1006 121.4295 15.78473791  3272
STARLINK-35998          
1 68055U 26041R   26074.25001157  .00076770  00000+0  38923-3 0  9991
2 68055  53.1595  34.1541 0001644 104.0696 100.6064 15.80861830  3238
STARLINK-36845          
1 68056U 26041S   26074.25001157  .00122344  00000+0  61544-3 0  9996
2 68056  53.1595  34.1364 0001114  55.5593 157.6557 15.80844947  3273
STARLINK-36954          
1 68057U 26041T   26074.25001157 -.01871690  00000+0 -12895-1 0  9998
2 68057  53.1595  34.1398 0001099  87.5311 123.8832 15.77080738  3273
STARLINK-36899          
1 68058U 26041U   26074.25001157 -.01880656  00000+0 -10745-1 0  9993
2 68058  53.1595  34.1188 0001301  56.9893 164.7258 15.81171304  3273
STARLINK-36917          
1 68059U 26041V   26074.25001157  .00187175  00000+0  93388-3 0  9993
2 68059  53.1595  34.1102 0001435  50.9850 175.0485 15.80816179  3277
